ISS (ZARYA)             
1 25544U 98067A   26076.19332186  .00012290  00000+0  23614-3 0  9996
2 25544  51.6337  35.2624 0006226 201.0018 159.0715 15.48337753557491
POISK                   
1 36086U 09060A   26076.19332186  .00012290  00000+0  23614-3 0  9994
2 36086  51.6337  35.2624 0006226 201.0018 159.0715 15.48337753554446
CSS (TIANHE)            
1 48274U 21035A   26076.26557602  .00021102  00000+0  24646-3 0  9990
2 48274  41.4671 162.0513 0006150 318.9181  41.1194 15.61083168278793
ISS (NAUKA)             
1 49044U 21066A   26076.19332186  .00012290  00000+0  23614-3 0  9992
2 49044  51.6337  35.2624 0006226 201.0018 159.0715 15.48337753554455
FREGAT DEB              
1 49271U 11037PF  26076.25875168  .00011612  00000+0  16478-1 0  9995
2 49271  51.6534 278.0398 0963583  76.7704 293.8703 12.40456934213636
CSS (WENTIAN)           
1 53239U 22085A   26076.26557602  .00021102  00000+0  24646-3 0  9993
2 53239  41.4671 162.0513 0006150 318.9181  41.1194 15.61083168275618
CSS (MENGTIAN)          
1 54216U 22143A   26076.26557602  .00021102  00000+0  24646-3 0  9994
2 54216  41.4671 162.0513 0006150 318.9181  41.1194 15.61083168275580
PROGRESS-MS 31          
1 64751U 25146A   26075.16062931  .00008402  00000+0  16433-3 0  9992
2 64751  51.6332  40.3661 0006342 195.9803 164.0986 15.48306205554467
TIANZHOU-9              
1 64786U 25149A   26076.26557602  .00021102  00000+0  24646-3 0  9996
2 64786  41.4671 162.0513 0006150 318.9181  41.1194 15.61083168275594
PROGRESS-MS 32          
1 65586U 25204A   26076.19332186  .00012290  00000+0  23614-3 0  9999
2 65586  51.6337  35.2624 0006226 201.0018 159.0715 15.48337753554500
YOTSUBA-KULOVER         
1 65941U 98067XN  26076.09475415  .00227916  00000+0  96443-3 0  9996
2 65941  51.6214  18.7815 0004920 122.2013 237.9468 15.84172953 24675
E-KAGAKU-1              
1 65943U 98067XQ  26076.10115171  .00208954  00000+0  90709-3 0  9990
2 65943  51.6238  18.8442 0005489 126.1658 233.9853 15.83682306 24670
