CCSDS_OMM_VERS = 2.0
CREATION_DATE  = 
ORIGINATOR     = 

OBJECT_NAME    = ISS (ZARYA)
OBJECT_ID      = 1998-067A
CENTER_NAME    = EARTH
REF_FRAME      = TEME
TIME_SYSTEM    = UTC
MEAN_ELEMENT_THEORY = SGP/SGP4

EPOCH          = 2026-03-17T04:38:23.008704
MEAN_MOTION    = 15.48337753
ECCENTRICITY   = .00062264
INCLINATION    = 51.6337
RA_OF_ASC_NODE = 35.2624
ARG_OF_PERICENTER = 201.0018
MEAN_ANOMALY   = 159.0715

EPHEMERIS_TYPE = 0
CLASSIFICATION_TYPE = U
NORAD_CAT_ID   = 25544
ELEMENT_SET_NO = 999
REV_AT_EPOCH   = 55749
BSTAR          = .23613801E-3
MEAN_MOTION_DOT = .1229E-3
MEAN_MOTION_DDOT = 0

CCSDS_OMM_VERS = 2.0
CREATION_DATE  = 
ORIGINATOR     = 

OBJECT_NAME    = POISK
OBJECT_ID      = 2009-060A
CENTER_NAME    = EARTH
REF_FRAME      = TEME
TIME_SYSTEM    = UTC
MEAN_ELEMENT_THEORY = SGP/SGP4

EPOCH          = 2026-03-17T04:38:23.008704
MEAN_MOTION    = 15.48337753
ECCENTRICITY   = .00062264
INCLINATION    = 51.6337
RA_OF_ASC_NODE = 35.2624
ARG_OF_PERICENTER = 201.0018
MEAN_ANOMALY   = 159.0715

EPHEMERIS_TYPE = 0
CLASSIFICATION_TYPE = U
NORAD_CAT_ID   = 36086
ELEMENT_SET_NO = 999
REV_AT_EPOCH   = 55444
BSTAR          = .23613801E-3
MEAN_MOTION_DOT = .1229E-3
MEAN_MOTION_DDOT = 0

CCSDS_OMM_VERS = 2.0
CREATION_DATE  = 
ORIGINATOR     = 

OBJECT_NAME    = CSS (TIANHE)
OBJECT_ID      = 2021-035A
CENTER_NAME    = EARTH
REF_FRAME      = TEME
TIME_SYSTEM    = UTC
MEAN_ELEMENT_THEORY = SGP/SGP4

EPOCH          = 2026-03-17T06:22:25.768128
MEAN_MOTION    = 15.61083168
ECCENTRICITY   = .00061505
INCLINATION    = 41.4671
RA_OF_ASC_NODE = 162.0513
ARG_OF_PERICENTER = 318.9181
MEAN_ANOMALY   = 41.1194

EPHEMERIS_TYPE = 0
CLASSIFICATION_TYPE = U
NORAD_CAT_ID   = 48274
ELEMENT_SET_NO = 999
REV_AT_EPOCH   = 27879
BSTAR          = .24645816E-3
MEAN_MOTION_DOT = .21102E-3
MEAN_MOTION_DDOT = 0

CCSDS_OMM_VERS = 2.0
CREATION_DATE  = 
ORIGINATOR     = 

OBJECT_NAME    = ISS (NAUKA)
OBJECT_ID      = 2021-066A
CENTER_NAME    = EARTH
REF_FRAME      = TEME
TIME_SYSTEM    = UTC
MEAN_ELEMENT_THEORY = SGP/SGP4

EPOCH          = 2026-03-17T04:38:23.008704
MEAN_MOTION    = 15.48337753
ECCENTRICITY   = .00062264
INCLINATION    = 51.6337
RA_OF_ASC_NODE = 35.2624
ARG_OF_PERICENTER = 201.0018
MEAN_ANOMALY   = 159.0715

EPHEMERIS_TYPE = 0
CLASSIFICATION_TYPE = U
NORAD_CAT_ID   = 49044
ELEMENT_SET_NO = 999
REV_AT_EPOCH   = 55445
BSTAR          = .23613801E-3
MEAN_MOTION_DOT = .1229E-3
MEAN_MOTION_DDOT = 0

CCSDS_OMM_VERS = 2.0
CREATION_DATE  = 
ORIGINATOR     = 

OBJECT_NAME    = FREGAT DEB
OBJECT_ID      = 2011-037PF
CENTER_NAME    = EARTH
REF_FRAME      = TEME
TIME_SYSTEM    = UTC
MEAN_ELEMENT_THEORY = SGP/SGP4

EPOCH          = 2026-03-17T06:12:36.145152
MEAN_MOTION    = 12.40456934
ECCENTRICITY   = .09635839
INCLINATION    = 51.6534
RA_OF_ASC_NODE = 278.0398
ARG_OF_PERICENTER = 76.7704
MEAN_ANOMALY   = 293.8703

EPHEMERIS_TYPE = 0
CLASSIFICATION_TYPE = U
NORAD_CAT_ID   = 49271
ELEMENT_SET_NO = 999
REV_AT_EPOCH   = 21363
BSTAR          = .1647761E-1
MEAN_MOTION_DOT = .11612E-3
MEAN_MOTION_DDOT = 0

CCSDS_OMM_VERS = 2.0
CREATION_DATE  = 
ORIGINATOR     = 

OBJECT_NAME    = CSS (WENTIAN)
OBJECT_ID      = 2022-085A
CENTER_NAME    = EARTH
REF_FRAME      = TEME
TIME_SYSTEM    = UTC
MEAN_ELEMENT_THEORY = SGP/SGP4

EPOCH          = 2026-03-17T06:22:25.768128
MEAN_MOTION    = 15.61083168
ECCENTRICITY   = .00061505
INCLINATION    = 41.4671
RA_OF_ASC_NODE = 162.0513
ARG_OF_PERICENTER = 318.9181
MEAN_ANOMALY   = 41.1194

EPHEMERIS_TYPE = 0
CLASSIFICATION_TYPE = U
NORAD_CAT_ID   = 53239
ELEMENT_SET_NO = 999
REV_AT_EPOCH   = 27561
BSTAR          = .24645816E-3
MEAN_MOTION_DOT = .21102E-3
MEAN_MOTION_DDOT = 0

CCSDS_OMM_VERS = 2.0
CREATION_DATE  = 
ORIGINATOR     = 

OBJECT_NAME    = CSS (MENGTIAN)
OBJECT_ID      = 2022-143A
CENTER_NAME    = EARTH
REF_FRAME      = TEME
TIME_SYSTEM    = UTC
MEAN_ELEMENT_THEORY = SGP/SGP4

EPOCH          = 2026-03-17T06:22:25.768128
MEAN_MOTION    = 15.61083168
ECCENTRICITY   = .00061505
INCLINATION    = 41.4671
RA_OF_ASC_NODE = 162.0513
ARG_OF_PERICENTER = 318.9181
MEAN_ANOMALY   = 41.1194

EPHEMERIS_TYPE = 0
CLASSIFICATION_TYPE = U
NORAD_CAT_ID   = 54216
ELEMENT_SET_NO = 999
REV_AT_EPOCH   = 27558
BSTAR          = .24645816E-3
MEAN_MOTION_DOT = .21102E-3
MEAN_MOTION_DDOT = 0

CCSDS_OMM_VERS = 2.0
CREATION_DATE  = 
ORIGINATOR     = 

OBJECT_NAME    = PROGRESS-MS 31
OBJECT_ID      = 2025-146A
CENTER_NAME    = EARTH
REF_FRAME      = TEME
TIME_SYSTEM    = UTC
MEAN_ELEMENT_THEORY = SGP/SGP4

EPOCH          = 2026-03-16T03:51:18.372384
MEAN_MOTION    = 15.48306205
ECCENTRICITY   = .00063428
INCLINATION    = 51.6332
RA_OF_ASC_NODE = 40.3661
ARG_OF_PERICENTER = 195.9803
MEAN_ANOMALY   = 164.0986

EPHEMERIS_TYPE = 0
CLASSIFICATION_TYPE = U
NORAD_CAT_ID   = 64751
ELEMENT_SET_NO = 999
REV_AT_EPOCH   = 55446
BSTAR          = .16433499E-3
MEAN_MOTION_DOT = .8402E-4
MEAN_MOTION_DDOT = 0

CCSDS_OMM_VERS = 2.0
CREATION_DATE  = 
ORIGINATOR     = 

OBJECT_NAME    = TIANZHOU-9
OBJECT_ID      = 2025-149A
CENTER_NAME    = EARTH
REF_FRAME      = TEME
TIME_SYSTEM    = UTC
MEAN_ELEMENT_THEORY = SGP/SGP4

EPOCH          = 2026-03-17T06:22:25.768128
MEAN_MOTION    = 15.61083168
ECCENTRICITY   = .00061505
INCLINATION    = 41.4671
RA_OF_ASC_NODE = 162.0513
ARG_OF_PERICENTER = 318.9181
MEAN_ANOMALY   = 41.1194

EPHEMERIS_TYPE = 0
CLASSIFICATION_TYPE = U
NORAD_CAT_ID   = 64786
ELEMENT_SET_NO = 999
REV_AT_EPOCH   = 27559
BSTAR          = .24645816E-3
MEAN_MOTION_DOT = .21102E-3
MEAN_MOTION_DDOT = 0

CCSDS_OMM_VERS = 2.0
CREATION_DATE  = 
ORIGINATOR     = 

OBJECT_NAME    = PROGRESS-MS 32
OBJECT_ID      = 2025-204A
CENTER_NAME    = EARTH
REF_FRAME      = TEME
TIME_SYSTEM    = UTC
MEAN_ELEMENT_THEORY = SGP/SGP4

EPOCH          = 2026-03-17T04:38:23.008704
MEAN_MOTION    = 15.48337753
ECCENTRICITY   = .00062264
INCLINATION    = 51.6337
RA_OF_ASC_NODE = 35.2624
ARG_OF_PERICENTER = 201.0018
MEAN_ANOMALY   = 159.0715

EPHEMERIS_TYPE = 0
CLASSIFICATION_TYPE = U
NORAD_CAT_ID   = 65586
ELEMENT_SET_NO = 999
REV_AT_EPOCH   = 55450
BSTAR          = .23613801E-3
MEAN_MOTION_DOT = .1229E-3
MEAN_MOTION_DDOT = 0

CCSDS_OMM_VERS = 2.0
CREATION_DATE  = 
ORIGINATOR     = 

OBJECT_NAME    = YOTSUBA-KULOVER
OBJECT_ID      = 1998-067XN
CENTER_NAME    = EARTH
REF_FRAME      = TEME
TIME_SYSTEM    = UTC
MEAN_ELEMENT_THEORY = SGP/SGP4

EPOCH          = 2026-03-17T02:16:26.758560
MEAN_MOTION    = 15.84172953
ECCENTRICITY   = .00049207
INCLINATION    = 51.6214
RA_OF_ASC_NODE = 18.7815
ARG_OF_PERICENTER = 122.2013
MEAN_ANOMALY   = 237.9468

EPHEMERIS_TYPE = 0
CLASSIFICATION_TYPE = U
NORAD_CAT_ID   = 65941
ELEMENT_SET_NO = 999
REV_AT_EPOCH   = 2467
BSTAR          = .96443436E-3
MEAN_MOTION_DOT = .227916E-2
MEAN_MOTION_DDOT = 0

CCSDS_OMM_VERS = 2.0
CREATION_DATE  = 
ORIGINATOR     = 

OBJECT_NAME    = E-KAGAKU-1
OBJECT_ID      = 1998-067XQ
CENTER_NAME    = EARTH
REF_FRAME      = TEME
TIME_SYSTEM    = UTC
MEAN_ELEMENT_THEORY = SGP/SGP4

EPOCH          = 2026-03-17T02:25:39.507744
MEAN_MOTION    = 15.83682306
ECCENTRICITY   = .00054895
INCLINATION    = 51.6238
RA_OF_ASC_NODE = 18.8442
ARG_OF_PERICENTER = 126.1658
MEAN_ANOMALY   = 233.9853

EPHEMERIS_TYPE = 0
CLASSIFICATION_TYPE = U
NORAD_CAT_ID   = 65943
ELEMENT_SET_NO = 999
REV_AT_EPOCH   = 2467
BSTAR          = .907094E-3
MEAN_MOTION_DOT = .208954E-2
MEAN_MOTION_DDOT = 0

